CCSDS_OMM_VERS = 2.0
CREATION_DATE  = 
ORIGINATOR     = 

OBJECT_NAME    = SL-3 R/B
OBJECT_ID      = 1982-079B
CENTER_NAME    = EARTH
REF_FRAME      = TEME
TIME_SYSTEM    = UTC
MEAN_ELEMENT_THEORY = SGP/SGP4

EPOCH          = 2026-01-08T11:21:24.784992
MEAN_MOTION    = 15.23968557
ECCENTRICITY   = .0025883
INCLINATION    = 81.1460
RA_OF_ASC_NODE = 264.1432
ARG_OF_PERICENTER = 12.6104
MEAN_ANOMALY   = 347.5770

EPHEMERIS_TYPE = 0
CLASSIFICATION_TYPE = U
NORAD_CAT_ID   = 13403
ELEMENT_SET_NO = 999
REV_AT_EPOCH   = 36852
BSTAR          = .24542E-3
MEAN_MOTION_DOT = .6019E-4
MEAN_MOTION_DDOT = 0

CCSDS_OMM_VERS = 2.0
CREATION_DATE  = 
ORIGINATOR     = 

OBJECT_NAME    = SL-14 R/B
OBJECT_ID      = 1982-092B
CENTER_NAME    = EARTH
REF_FRAME      = TEME
TIME_SYSTEM    = UTC
MEAN_ELEMENT_THEORY = SGP/SGP4

EPOCH          = 2026-01-08T11:17:35.272032
MEAN_MOTION    = 14.86587960
ECCENTRICITY   = .0021323
INCLINATION    = 82.5667
RA_OF_ASC_NODE = 197.7111
ARG_OF_PERICENTER = 137.9259
MEAN_ANOMALY   = 285.1630

EPHEMERIS_TYPE = 0
CLASSIFICATION_TYPE = U
NORAD_CAT_ID   = 13553
ELEMENT_SET_NO = 999
REV_AT_EPOCH   = 31998
BSTAR          = .68646E-4
MEAN_MOTION_DOT = .636E-5
MEAN_MOTION_DDOT = 0

CCSDS_OMM_VERS = 2.0
CREATION_DATE  = 
ORIGINATOR     = 

OBJECT_NAME    = SL-3 R/B
OBJECT_ID      = 1983-010B
CENTER_NAME    = EARTH
REF_FRAME      = TEME
TIME_SYSTEM    = UTC
MEAN_ELEMENT_THEORY = SGP/SGP4

EPOCH          = 2026-01-08T06:44:15.167040
MEAN_MOTION    = 15.44315898
ECCENTRICITY   = .0016187
INCLINATION    = 81.1034
RA_OF_ASC_NODE = 76.2027
ARG_OF_PERICENTER = 255.4925
MEAN_ANOMALY   = 104.4523

EPHEMERIS_TYPE = 0
CLASSIFICATION_TYPE = U
NORAD_CAT_ID   = 13819
ELEMENT_SET_NO = 999
REV_AT_EPOCH   = 34861
BSTAR          = .32022E-3
MEAN_MOTION_DOT = .14858E-3
MEAN_MOTION_DDOT = 0

CCSDS_OMM_VERS = 2.0
CREATION_DATE  = 
ORIGINATOR     = 

OBJECT_NAME    = SL-3 R/B
OBJECT_ID      = 1983-075B
CENTER_NAME    = EARTH
REF_FRAME      = TEME
TIME_SYSTEM    = UTC
MEAN_ELEMENT_THEORY = SGP/SGP4

EPOCH          = 2026-01-08T11:45:08.040096
MEAN_MOTION    = 15.36796610
ECCENTRICITY   = .0024551
INCLINATION    = 97.6118
RA_OF_ASC_NODE = 10.8834
ARG_OF_PERICENTER = 85.4880
MEAN_ANOMALY   = 274.9167

EPHEMERIS_TYPE = 0
CLASSIFICATION_TYPE = U
NORAD_CAT_ID   = 14208
ELEMENT_SET_NO = 999
REV_AT_EPOCH   = 32090
BSTAR          = .34725E-3
MEAN_MOTION_DOT = .12531E-3
MEAN_MOTION_DDOT = 0

CCSDS_OMM_VERS = 2.0
CREATION_DATE  = 
ORIGINATOR     = 

OBJECT_NAME    = COSMOS 1536
OBJECT_ID      = 1984-013A
CENTER_NAME    = EARTH
REF_FRAME      = TEME
TIME_SYSTEM    = UTC
MEAN_ELEMENT_THEORY = SGP/SGP4

EPOCH          = 2026-01-08T11:40:45.283872
MEAN_MOTION    = 15.22934036
ECCENTRICITY   = .0015402
INCLINATION    = 82.5460
RA_OF_ASC_NODE = 167.6316
ARG_OF_PERICENTER = 131.2682
MEAN_ANOMALY   = 228.9884

EPHEMERIS_TYPE = 0
CLASSIFICATION_TYPE = U
NORAD_CAT_ID   = 14699
ELEMENT_SET_NO = 999
REV_AT_EPOCH   = 26345
BSTAR          = .31994E-3
MEAN_MOTION_DOT = .7564E-4
MEAN_MOTION_DDOT = 0

CCSDS_OMM_VERS = 2.0
CREATION_DATE  = 
ORIGINATOR     = 

OBJECT_NAME    = SL-14 R/B
OBJECT_ID      = 1984-027B
CENTER_NAME    = EARTH
REF_FRAME      = TEME
TIME_SYSTEM    = UTC
MEAN_ELEMENT_THEORY = SGP/SGP4

EPOCH          = 2026-01-08T06:57:44.901792
MEAN_MOTION    = 14.85909332
ECCENTRICITY   = .0018167
INCLINATION    = 82.5432
RA_OF_ASC_NODE = 301.6595
ARG_OF_PERICENTER = 168.5142
MEAN_ANOMALY   = 191.6493

EPHEMERIS_TYPE = 0
CLASSIFICATION_TYPE = U
NORAD_CAT_ID   = 14820
ELEMENT_SET_NO = 999
REV_AT_EPOCH   = 23866
BSTAR          = .70074E-4
MEAN_MOTION_DOT = .637E-5
MEAN_MOTION_DDOT = 0

CCSDS_OMM_VERS = 2.0
CREATION_DATE  = 
ORIGINATOR     = 

OBJECT_NAME    = SL-8 R/B
OBJECT_ID      = 1985-006B
CENTER_NAME    = EARTH
REF_FRAME      = TEME
TIME_SYSTEM    = UTC
MEAN_ELEMENT_THEORY = SGP/SGP4

EPOCH          = 2026-01-08T09:50:09.960864
MEAN_MOTION    = 14.37742025
ECCENTRICITY   = .0019682
INCLINATION    = 74.0459
RA_OF_ASC_NODE = 12.0627
ARG_OF_PERICENTER = 299.5507
MEAN_ANOMALY   = 165.7433

EPHEMERIS_TYPE = 0
CLASSIFICATION_TYPE = U
NORAD_CAT_ID   = 15483
ELEMENT_SET_NO = 999
REV_AT_EPOCH   = 14536
BSTAR          = .12597E-3
MEAN_MOTION_DOT = .353E-5
MEAN_MOTION_DDOT = 0

CCSDS_OMM_VERS = 2.0
CREATION_DATE  = 
ORIGINATOR     = 

OBJECT_NAME    = SL-12 R/B(2)
OBJECT_ID      = 1985-042D
CENTER_NAME    = EARTH
REF_FRAME      = TEME
TIME_SYSTEM    = UTC
MEAN_ELEMENT_THEORY = SGP/SGP4

EPOCH          = 2026-01-08T08:37:27.924672
MEAN_MOTION    = 14.21960628
ECCENTRICITY   = .0036749
INCLINATION    = 71.1065
RA_OF_ASC_NODE = 215.1842
ARG_OF_PERICENTER = 222.2790
MEAN_ANOMALY   = 312.6877

EPHEMERIS_TYPE = 0
CLASSIFICATION_TYPE = U
NORAD_CAT_ID   = 15772
ELEMENT_SET_NO = 999
REV_AT_EPOCH   = 10581
BSTAR          = .77012E-4
MEAN_MOTION_DOT = .123E-5
MEAN_MOTION_DDOT = 0

CCSDS_OMM_VERS = 2.0
CREATION_DATE  = 
ORIGINATOR     = 

OBJECT_NAME    = SL-14 R/B
OBJECT_ID      = 1985-069B
CENTER_NAME    = EARTH
REF_FRAME      = TEME
TIME_SYSTEM    = UTC
MEAN_ELEMENT_THEORY = SGP/SGP4

EPOCH          = 2026-01-08T07:02:16.976256
MEAN_MOTION    = 14.86359763
ECCENTRICITY   = .0019663
INCLINATION    = 82.5265
RA_OF_ASC_NODE = 81.7396
ARG_OF_PERICENTER = 36.4691
MEAN_ANOMALY   = 323.7860

EPHEMERIS_TYPE = 0
CLASSIFICATION_TYPE = U
NORAD_CAT_ID   = 15945
ELEMENT_SET_NO = 999
REV_AT_EPOCH   = 16386
BSTAR          = .6275E-4
MEAN_MOTION_DOT = .579E-5
MEAN_MOTION_DDOT = 0

CCSDS_OMM_VERS = 2.0
CREATION_DATE  = 
ORIGINATOR     = 

OBJECT_NAME    = SL-16 R/B
OBJECT_ID      = 1985-097B
CENTER_NAME    = EARTH
REF_FRAME      = TEME
TIME_SYSTEM    = UTC
MEAN_ELEMENT_THEORY = SGP/SGP4

EPOCH          = 2026-01-08T11:50:12.960384
MEAN_MOTION    = 14.16590509
ECCENTRICITY   = .000828
INCLINATION    = 71.0031
RA_OF_ASC_NODE = 267.2816
ARG_OF_PERICENTER = 332.5237
MEAN_ANOMALY   = 200.0922

EPHEMERIS_TYPE = 0
CLASSIFICATION_TYPE = U
NORAD_CAT_ID   = 16182
ELEMENT_SET_NO = 999
REV_AT_EPOCH   = 7870
BSTAR          = .16814E-3
MEAN_MOTION_DOT = .288E-5
MEAN_MOTION_DDOT = 0

CCSDS_OMM_VERS = 2.0
CREATION_DATE  = 
ORIGINATOR     = 

OBJECT_NAME    = SL-14 R/B
OBJECT_ID      = 1986-006B
CENTER_NAME    = EARTH
REF_FRAME      = TEME
TIME_SYSTEM    = UTC
MEAN_ELEMENT_THEORY = SGP/SGP4

EPOCH          = 2026-01-08T08:28:18.833664
MEAN_MOTION    = 14.86713542
ECCENTRICITY   = .007815
INCLINATION    = 82.5286
RA_OF_ASC_NODE = 316.5115
ARG_OF_PERICENTER = 112.2519
MEAN_ANOMALY   = 248.7010

EPHEMERIS_TYPE = 0
CLASSIFICATION_TYPE = U
NORAD_CAT_ID   = 16496
ELEMENT_SET_NO = 999
REV_AT_EPOCH   = 14024
BSTAR          = .84044E-4
MEAN_MOTION_DOT = .818E-5
MEAN_MOTION_DDOT = 0

CCSDS_OMM_VERS = 2.0
CREATION_DATE  = 
ORIGINATOR     = 

OBJECT_NAME    = COSMOS 1743
OBJECT_ID      = 1986-034A
CENTER_NAME    = EARTH
REF_FRAME      = TEME
TIME_SYSTEM    = UTC
MEAN_ELEMENT_THEORY = SGP/SGP4

EPOCH          = 2026-01-08T09:28:13.158336
MEAN_MOTION    = 15.54013608
ECCENTRICITY   = .0005204
INCLINATION    = 82.5359
RA_OF_ASC_NODE = 136.8716
ARG_OF_PERICENTER = 149.8031
MEAN_ANOMALY   = 210.3524

EPHEMERIS_TYPE = 0
CLASSIFICATION_TYPE = U
NORAD_CAT_ID   = 16719
ELEMENT_SET_NO = 999
REV_AT_EPOCH   = 17087
BSTAR          = .57245E-3
MEAN_MOTION_DOT = .37178E-3
MEAN_MOTION_DDOT = 0

