SL-3 R/B                
1 13403U 82079B   26008.47320353  .00006019  00000+0  24542-3 0  9995
2 13403  81.1460 264.1432 0025883  12.6104 347.5770 15.23968557368523
SL-14 R/B               
1 13553U 82092B   26008.47054713  .00000636  00000+0  68646-4 0  9993
2 13553  82.5667 197.7111 0021323 137.9259 285.1630 14.86587960319986
SL-3 R/B                
1 13819U 83010B   26008.28073110  .00014858  00000+0  32022-3 0  9999
2 13819  81.1034  76.2027 0016187 255.4925 104.4523 15.44315898348619
SL-3 R/B                
1 14208U 83075B   26008.48967639  .00012531  00000+0  34725-3 0  9991
2 14208  97.6118  10.8834 0024551  85.4880 274.9167 15.36796610320907
COSMOS 1536             
1 14699U 84013A   26008.48663523  .00007564  00000+0  31994-3 0  9998
2 14699  82.5460 167.6316 0015402 131.2682 228.9884 15.22934036263457
SL-14 R/B               
1 14820U 84027B   26008.29010303  .00000637  00000+0  70074-4 0  9997
2 14820  82.5432 301.6595 0018167 168.5142 191.6493 14.85909332238662
SL-8 R/B                
1 15483U 85006B   26008.40983751  .00000353  00000+0  12597-3 0  9990
2 15483  74.0459  12.0627 0019682 299.5507 165.7433 14.37742025145366
SL-12 R/B(2)            
1 15772U 85042D   26008.35935098  .00000123  00000+0  77012-4 0  9995
2 15772  71.1065 215.1842 0036749 222.2790 312.6877 14.21960628105818
SL-14 R/B               
1 15945U 85069B   26008.29325204  .00000579  00000+0  62750-4 0  9999
2 15945  82.5265  81.7396 0019663  36.4691 323.7860 14.86359763163867
SL-16 R/B               
1 16182U 85097B   26008.49320556  .00000288  00000+0  16814-3 0  9997
2 16182  71.0031 267.2816 0008280 332.5237 200.0922 14.16590509 78704
SL-14 R/B               
1 16496U 86006B   26008.35299576  .00000818  00000+0  84044-4 0  9998
2 16496  82.5286 316.5115 0078150 112.2519 248.7010 14.86713542140247
COSMOS 1743             
1 16719U 86034A   26008.39459674  .00037178  00000+0  57245-3 0  9999
2 16719  82.5359 136.8716 0005204 149.8031 210.3524 15.54013608170870
